NORAD_CAT_ID,OBJECT_NAME,OBJECT_TYPE,EPOCH,MEAN_MOTION,ECCENTRICITY,INCLINATION,RA_OF_ASC_NODE,ARG_OF_PERICENTER,MEAN_ANOMALY,BSTAR,MEAN_MOTION_DOT,MEAN_MOTION_DDOT,TLE_LINE0,TLE_LINE1,TLE_LINE2,SEMIMAJOR_AXIS,PERIOD,APOGEE,PERIGEE,DECAYED
56814.0,STARLINK-6059,PAYLOAD,2024-05-21 13:45:24,14.98317179,0.0002938,70.0015,201.1567,254.5354,105.5481,0.00011339,1.26e-05,0.0,0 STARLINK-6059,1 56814U 23078AZ  24142.57320589  .00001260  00000-0  11339-3 0  9995,2 56814  70.0015 201.1567 0002938 254.5354 105.5481 14.98317179 54251,6950.233,96.108,574.14,570.056,0.0
56814.0,STARLINK-6059,PAYLOAD,2024-05-22 04:10:36,14.98341891,0.0003151,70.0002,199.639,260.3578,99.7225,1.7969e-05,1.21e-06,0.0,0 STARLINK-6059,1 56814U 23078AZ  24143.17403242  .00000121  00000-0  17969-4 0  9991,2 56814  70.0002 199.6390 0003151 260.3578  99.7225 14.98341891 54600,6950.156,96.106,574.211,569.831,0.0
56814.0,STARLINK-6059,PAYLOAD,2024-05-22 12:11:16,14.98341725,0.0003475,69.9992,198.7969,265.5919,94.4843,6.3854e-05,6.69e-06,0.0,0 STARLINK-6059,1 56814U 23078AZ  24143.50782935  .00000669  00000-0  63854-4 0  9998,2 56814  69.9992 198.7969 0003475 265.5919  94.4843 14.98341725 54392,6950.157,96.106,574.437,569.606,0.0
56814.0,STARLINK-6059,PAYLOAD,2024-05-23 04:12:37,14.98329458,0.0003342,69.9994,197.1127,263.3956,96.6822,8.5367e-05,9.26e-06,0.0,0 STARLINK-6059,1 56814U 23078AZ  24144.17543408  .00000926  00000-0  85367-4 0  9991,2 56814  69.9994 197.1127 0003342 263.3956  96.6822 14.98329458 54753,6950.195,96.107,574.382,569.737,0.0
56814.0,STARLINK-6059,PAYLOAD,2024-05-23 13:49:26,14.9832723,0.0003405,69.9994,196.1037,264.378,95.6991,4.1635e-05,4.04e-06,0.0,0 STARLINK-6059,1 56814U 23078AZ  24144.57599698  .00000404  00000-0  41635-4 0  9998,2 56814  69.9994 196.1037 0003405 264.3780  95.6991 14.98327230 54558,6950.201,96.107,574.433,569.7,0.0
56814.0,STARLINK-6059,PAYLOAD,2024-05-24 04:14:38,14.98336606,0.0003472,69.999,194.5882,267.4847,92.5915,1.408e-05,7.5e-07,0.0,0 STARLINK-6059,1 56814U 23078AZ  24145.17683074  .00000075  00000-0  14080-4 0  9995,2 56814  69.9990 194.5882 0003472 267.4847  92.5915 14.98336606 54904,6950.172,96.107,574.451,569.624,0.0
56814.0,STARLINK-6059,PAYLOAD,2024-05-24 12:15:18,14.98339205,0.0003405,69.9992,193.7468,267.3247,92.7523,4.5088e-05,4.45e-06,0.0,0 STARLINK-6059,1 56814U 23078AZ  24145.51062673  .00000445  00000-0  45088-4 0  9992,2 56814  69.9992 193.7468 0003405 267.3247  92.7523 14.98339205 54697,6950.164,96.106,574.396,569.663,0.0
56814.0,STARLINK-6059,PAYLOAD,2024-05-24 20:15:58,14.98332357,0.0003449,70.0005,192.908,263.5141,96.5625,-7.3797e-06,-1.81e-06,0.0,0 STARLINK-6059,1 56814U 23078AZ  24145.84443052 -.00000181  00000-0 -73797-5 0  9990,2 56814  70.0005 192.9080 0003449 263.5141  96.5625 14.98332357 54747,6950.186,96.107,574.448,569.653,0.0
56814.0,STARLINK-6059,PAYLOAD,2024-05-25 04:16:39,14.98323121,0.0002997,70.0011,192.067,267.334,92.7476,8.0321e-05,8.65e-06,0.0,0 STARLINK-6059,1 56814U 23078AZ  24146.17823588  .00000865  00000-0  80321-4 0  9990,2 56814  70.0011 192.0670 0002997 267.3340  92.7476 14.98323121 55056,6950.214,96.107,574.162,569.996,0.0
56814.0,STARLINK-6059,PAYLOAD,2024-05-25 12:17:20,14.98322481,0.0003547,69.9984,191.2217,269.7519,90.3233,1.0795e-05,3.6e-07,0.0,0 STARLINK-6059,1 56814U 23078AZ  24146.51203911  .00000036  00000-0  10795-4 0  9998,2 56814  69.9984 191.2217 0003547 269.7519  90.3233 14.98322481 54845,6950.216,96.107,574.546,569.616,0.0
56814.0,STARLINK-6059,PAYLOAD,2024-05-26 04:18:39,14.98342512,0.0003517,69.9981,189.538,266.6851,93.3906,0.00011687,1.302e-05,0.0,0 STARLINK-6059,1 56814U 23078AZ  24147.17962573  .00001302  00000-0  11687-3 0  9994,2 56814  69.9981 189.5380 0003517 266.6851  93.3906 14.98342512 55203,6950.154,96.106,574.464,569.575,0.0
56814.0,STARLINK-6059,PAYLOAD,2024-05-26 12:19:20,14.9833242,0.0003612,69.9989,188.6981,273.4029,86.6717,5.3345e-05,5.44e-06,0.0,0 STARLINK-6059,1 56814U 23078AZ  24147.51343366  .00000544  00000-0  53345-4 0  9990,2 56814  69.9989 188.6981 0003612 273.4029  86.6717 14.98332420 55254,6950.185,96.107,574.561,569.54,0.0
56814.0,STARLINK-6059,PAYLOAD,2024-05-27 04:20:43,14.98302988,0.0003009,69.9992,187.015,257.4142,102.6681,-0.00023607,-2.907e-05,0.0,0 STARLINK-6059,1 56814U 23078AZ  24148.18105561 -.00002907  00000-0 -23607-3 0  9991,2 56814  69.9992 187.0150 0003009 257.4142 102.6681 14.98302988 55353,6950.276,96.109,574.233,570.05,0.0
56814.0,STARLINK-6059,PAYLOAD,2024-05-27 12:21:20,14.98336355,0.0003472,69.9987,186.1729,266.532,93.5442,0.00020602,2.366e-05,0.0,0 STARLINK-6059,1 56814U 23078AZ  24148.51482462  .00002366  00000-0  20602-3 0  9995,2 56814  69.9987 186.1729 0003472 266.5320  93.5442 14.98336355 55406,6950.173,96.107,574.451,569.625,0.0
56814.0,STARLINK-6059,PAYLOAD,2024-05-28 04:22:42,14.98329213,0.0003,69.9999,184.4905,257.9687,102.1136,5.542e-05,5.68e-06,0.0,0 STARLINK-6059,1 56814U 23078AZ  24149.18243184  .00000568  00000-0  55420-4 0  9994,2 56814  69.9999 184.4905 0003000 257.9687 102.1136 14.98329213 55506,6950.195,96.107,574.145,569.975,0.0
56814.0,STARLINK-6059,PAYLOAD,2024-05-28 12:23:22,14.98328932,0.0003312,69.999,183.6482,264.8485,95.2296,-4.1246e-06,-1.42e-06,0.0,0 STARLINK-6059,1 56814U 23078AZ  24149.51623349 -.00000142  00000-0 -41246-5 0  9998,2 56814  69.9990 183.6482 0003312 264.8485  95.2296 14.98328932 55299,6950.196,96.107,574.363,569.759,0.0
56814.0,STARLINK-6059,PAYLOAD,2024-05-29 04:24:42,14.98334891,0.0003231,69.9992,181.9658,261.8947,98.1846,-6.7138e-05,-8.94e-06,0.0,0 STARLINK-6059,1 56814U 23078AZ  24150.18383015 -.00000894  00000-0 -67138-4 0  9997,2 56814  69.9992 181.9658 0003231 261.8947  98.1846 14.98334891 55651,6950.178,96.107,574.288,569.797,0.0
56814.0,STARLINK-6059,PAYLOAD,2024-05-29 12:25:23,14.98332169,0.0003281,69.9988,181.1235,263.0909,96.9877,-8.9654e-05,-1.163e-05,0.0,0 STARLINK-6059,1 56814U 23078AZ  24150.51763190 -.00001163  00000-0 -89654-4 0  9997,2 56814  69.9988 181.1235 0003281 263.0909  96.9877 14.98332169 55449,6950.186,96.107,574.332,569.771,0.0
56814.0,STARLINK-6059,PAYLOAD,2024-05-30 04:26:43,14.98330072,0.0003481,69.9981,179.4396,268.0824,91.9936,4.5076e-05,4.45e-06,0.0,0 STARLINK-6059,1 56814U 23078AZ  24151.18522938  .00000445  00000-0  45076-4 0  9994,2 56814  69.9981 179.4396 0003481 268.0824  91.9936 14.98330072 55805,6950.193,96.107,574.477,569.638,0.0
56814.0,STARLINK-6059,PAYLOAD,2024-05-30 10:51:15,14.98331189,0.0003459,69.9982,178.7664,268.8718,91.2045,5.688e-05,5.86e-06,0.0,0 STARLINK-6059,1 56814U 23078AZ  24151.45226843  .00000586  00000-0  56880-4 0  9991,2 56814  69.9982 178.7664 0003459 268.8718  91.2045 14.98331189 55580,6950.189,96.107,574.458,569.65,0.0
56814.0,STARLINK-6059,PAYLOAD,2024-05-31 04:28:44,14.98327945,0.000341,69.9981,176.9146,268.7328,91.3441,3.5879e-05,3.35e-06,0.0,0 STARLINK-6059,1 56814U 23078AZ  24152.18663154  .00000335  00000-0  35879-4 0  9999,2 56814  69.9981 176.9146 0003410 268.7328  91.3441 14.98327945 55954,6950.199,96.107,574.434,569.694,0.0
56814.0,STARLINK-6059,PAYLOAD,2024-05-31 10:53:17,14.98328137,0.0003403,69.9981,176.2414,268.6308,91.4461,3.591e-05,3.35e-06,0.0,0 STARLINK-6059,1 56814U 23078AZ  24152.45367175  .00000335  00000-0  35910-4 0  9999,2 56814  69.9981 176.2414 0003403 268.6308  91.4461 14.98328137 55737,6950.199,96.107,574.429,569.698,0.0
56814.0,STARLINK-6059,PAYLOAD,2024-05-31 18:53:57,14.98329075,0.000339,69.9981,175.3998,269.6166,90.4605,1.1929e-05,4.9e-07,0.0,0 STARLINK-6059,1 56814U 23078AZ  24152.78747197  .00000049  00000-0  11929-4 0  9997,2 56814  69.9981 175.3998 0003390 269.6166  90.4605 14.98329075 55788,6950.196,96.107,574.417,569.705,0.0
56814.0,STARLINK-6059,PAYLOAD,2024-06-01 04:30:45,14.98329373,0.0003394,69.9981,174.3899,269.3941,90.6829,-2.933e-06,-1.28e-06,0.0,0 STARLINK-6059,1 56814U 23078AZ  24153.18803226 -.00000128  00000-0 -29330-5 0  9994,2 56814  69.9981 174.3899 0003394 269.3941  90.6829 14.98329373 56107,6950.195,96.107,574.419,569.701,0.0
56814.0,STARLINK-6059,PAYLOAD,2024-06-01 10:55:18,14.98328881,0.0003406,69.9981,173.7166,269.4062,90.6707,-8.0272e-06,-1.89e-06,0.0,0 STARLINK-6059,1 56814U 23078AZ  24153.45507282 -.00000189  00000-0 -80272-5 0  9996,2 56814  69.9981 173.7166 0003406 269.4062  90.6707 14.98328881 55888,6950.196,96.107,574.429,569.694,0.0
56814.0,STARLINK-6059,PAYLOAD,2024-06-02 04:32:46,14.98330474,0.0003463,69.9979,171.8647,269.116,90.9602,6.058e-05,6.3e-06,0.0,0 STARLINK-6059,1 56814U 23078AZ  24154.18942977  .00000630  00000-0  60580-4 0  9999,2 56814  69.9979 171.8647 0003463 269.1160  90.9602 14.98330474 56257,6950.191,96.107,574.463,569.65,0.0
56814.0,STARLINK-6059,PAYLOAD,2024-06-02 10:57:18,14.98331797,0.0003475,69.9979,171.1913,268.9829,91.0932,5.797e-05,5.99e-06,0.0,0 STARLINK-6059,1 56814U 23078AZ  24154.45646891  .00000599  00000-0  57970-4 0  9998,2 56814  69.9979 171.1913 0003475 268.9829  91.0932 14.98331797 56031,6950.187,96.107,574.468,569.637,0.0
56814.0,STARLINK-6059,PAYLOAD,2024-06-03 04:34:47,14.98331738,0.0003476,69.998,169.3397,268.739,91.3371,6.67e-05,7.03e-06,0.0,0 STARLINK-6059,1 56814U 23078AZ  24155.19082828  .00000703  00000-0  66700-4 0  9992,2 56814  69.9980 169.3397 0003476 268.7390  91.3371 14.98331738 56406,6950.188,96.107,574.468,569.637,0.0
56814.0,STARLINK-6059,PAYLOAD,2024-06-03 10:59:19,14.98333347,0.0003473,69.998,168.6664,268.6636,91.4125,7.1083e-05,7.55e-06,0.0,0 STARLINK-6059,1 56814U 23078AZ  24155.45786683  .00000755  00000-0  71083-4 0  9998,2 56814  69.9980 168.6664 0003473 268.6636  91.4125 14.98333347 56185,6950.183,96.107,574.461,569.634,0.0
56814.0,STARLINK-6059,PAYLOAD,2024-06-04 11:01:20,14.98333148,0.0003426,69.9982,166.1417,268.2883,91.7884,2.6527e-05,2.23e-06,0.0,0 STARLINK-6059,1 56814U 23078AZ  24156.45926637  .00000223  00000-0  26527-4 0  9997,2 56814  69.9982 166.1417 0003426 268.2883  91.7884 14.98333148 56593,6950.183,96.107,574.429,569.667,0.0
